[{"OBJECT_NAME":"KINEIS-2C","OBJECT_ID":"2025-028B","EPOCH":"2026-03-09T22:20:44.060928","MEAN_MOTION":14.72317253,"ECCENTRICITY":9.527e-5,"INCLINATION":98.0273,"RA_OF_ASC_NODE":124.0949,"ARG_OF_PERICENTER":34.6076,"MEAN_ANOMALY":325.5193,"EPHEMERIS_TYPE":0,"CLASSIFICATION_TYPE":"U","NORAD_CAT_ID":62929,"ELEMENT_SET_NO":999,"REV_AT_EPOCH":5800,"BSTAR":0.00026506877,"MEAN_MOTION_DOT":1.626e-5,"MEAN_MOTION_DDOT":0},{"OBJECT_NAME":"SCOUT B-1 R\/B","OBJECT_ID":"1971-071B","EPOCH":"2026-03-09T20:40:44.002560","MEAN_MOTION":14.63467758,"ECCENTRICITY":0.00975944,"INCLINATION":50.1458,"RA_OF_ASC_NODE":302.7461,"ARG_OF_PERICENTER":318.4774,"MEAN_ANOMALY":40.8773,"EPHEMERIS_TYPE":0,"CLASSIFICATION_TYPE":"U","NORAD_CAT_ID":5438,"ELEMENT_SET_NO":999,"REV_AT_EPOCH":86443,"BSTAR":0.00021093616,"MEAN_MOTION_DOT":9.68e-6,"MEAN_MOTION_DDOT":0}]
